NORAD_CAT_ID,OBJECT_NAME,OBJECT_TYPE,EPOCH,MEAN_MOTION,ECCENTRICITY,INCLINATION,RA_OF_ASC_NODE,ARG_OF_PERICENTER,MEAN_ANOMALY,BSTAR,MEAN_MOTION_DOT,MEAN_MOTION_DDOT,TLE_LINE0,TLE_LINE1,TLE_LINE2,SEMIMAJOR_AXIS,PERIOD,APOGEE,PERIGEE,DECAYED
55776.0,STARLINK-5810,PAYLOAD,2024-06-19 20:24:18,14.98330252,0.0002975,69.9999,7.2701,272.0353,88.0466,7.4996e-06,-4e-08,0.0,0 STARLINK-5810,1 55776U 23028AM  24171.85021984 -.00000004  00000-0  74996-5 0  9992,2 55776  69.9999   7.2701 0002975 272.0353  88.0466 14.98330252 72496,6950.192,96.107,574.125,569.989,0.0
55776.0,STARLINK-5810,PAYLOAD,2024-06-19 22:00:26,14.98330966,0.0002969,69.9999,7.1018,272.0383,88.0436,1.4923e-05,8.5e-07,0.0,0 STARLINK-5810,1 55776U 23028AM  24171.91697912  .00000085  00000-0  14923-4 0  9990,2 55776  69.9999   7.1018 0002969 272.0383  88.0436 14.98330966 72503,6950.19,96.107,574.118,569.991,0.0
55776.0,STARLINK-5810,PAYLOAD,2024-06-20 14:01:47,14.98329191,0.0003205,70.0006,5.419,269.3,90.7792,2.3241e-05,1.84e-06,0.0,0 STARLINK-5810,1 55776U 23028AM  24172.58457869  .00000184  00000-0  23241-4 0  9992,2 55776  70.0006   5.4190 0003205 269.3000  90.7792 14.98329191 72600,6950.195,96.107,574.288,569.833,0.0
55776.0,STARLINK-5810,PAYLOAD,2024-06-20 22:02:27,14.98330795,0.0003128,70.0002,4.5777,267.7348,92.3453,1.8654e-05,1.3e-06,0.0,0 STARLINK-5810,1 55776U 23028AM  24172.91837760  .00000130  00000-0  18654-4 0  9994,2 55776  70.0002   4.5777 0003128 267.7348  92.3453 14.98330795 72657,6950.19,96.107,574.229,569.881,0.0
55776.0,STARLINK-5810,PAYLOAD,2024-06-21 14:03:48,14.98328634,0.0003043,70.0,2.8924,269.8612,90.2198,1.8851e-05,1.32e-06,0.0,0 STARLINK-5810,1 55776U 23028AM  24173.58597823  .00000132  00000-0  18851-4 0  9992,2 55776  70.0000   2.8924 0003043 269.8612  90.2198 14.98328634 72756,6950.197,96.107,574.177,569.947,0.0
55776.0,STARLINK-5810,PAYLOAD,2024-06-21 22:04:28,14.98328904,0.0003012,70.0001,2.0519,270.3437,89.7377,1.134e-05,4.2e-07,0.0,0 STARLINK-5810,1 55776U 23028AM  24173.91977852  .00000042  00000-0  11340-4 0  9999,2 55776  70.0001   2.0519 0003012 270.3437  89.7377 14.98328904 72805,6950.196,96.107,574.155,569.968,0.0
55776.0,STARLINK-5810,PAYLOAD,2024-06-22 14:05:49,14.98327394,0.0002951,70.0,0.3686,266.4259,93.6563,-1.9591e-05,-3.27e-06,0.0,0 STARLINK-5810,1 55776U 23028AM  24174.58738019 -.00000327  00000-0 -19591-4 0  9997,2 55776  70.0000   0.3686 0002951 266.4259  93.6563 14.98327394 72903,6950.201,96.107,574.117,570.015,0.0
55776.0,STARLINK-5810,PAYLOAD,2024-06-22 22:06:29,14.98328522,0.0002935,70.0001,359.5267,265.2571,94.8253,-1.0453e-05,-2.18e-06,0.0,0 STARLINK-5810,1 55776U 23028AM  24174.92117948 -.00000218  00000-0 -10453-4 0  9994,2 55776  70.0001 359.5267 0002935 265.2571  94.8253 14.98328522 72952,6950.197,96.107,574.102,570.023,0.0
55776.0,STARLINK-5810,PAYLOAD,2024-06-23 14:07:50,14.98330496,0.0002989,70.0001,357.8441,265.3858,94.6959,1.8203e-05,1.24e-06,0.0,0 STARLINK-5810,1 55776U 23028AM  24175.58877722  .00000124  00000-0  18203-4 0  9995,2 55776  70.0001 357.8441 0002989 265.3858  94.6959 14.98330496 73051,6950.191,96.107,574.134,569.979,0.0
55776.0,STARLINK-5810,PAYLOAD,2024-06-23 22:08:30,14.98331896,0.0002973,70.0002,357.0028,265.2552,94.8267,3.3323e-05,3.05e-06,0.0,0 STARLINK-5810,1 55776U 23028AM  24175.92257570  .00000305  00000-0  33323-4 0  9997,2 55776  70.0002 357.0028 0002973 265.2552  94.8267 14.98331896 73103,6950.187,96.107,574.118,569.986,0.0
55776.0,STARLINK-5810,PAYLOAD,2024-06-24 14:09:51,14.98330553,0.0003011,70.0002,355.3198,265.8844,94.1971,2.7523e-05,2.35e-06,0.0,0 STARLINK-5810,1 55776U 23028AM  24176.59017607  .00000235  00000-0  27523-4 0  9993,2 55776  70.0002 355.3198 0003011 265.8844  94.1971 14.98330553 73201,6950.191,96.107,574.149,569.963,0.0
55776.0,STARLINK-5810,PAYLOAD,2024-06-24 20:34:23,14.98332367,0.0003121,70.0,354.6462,266.5926,93.4876,3.6739e-05,3.45e-06,0.0,0 STARLINK-5810,1 55776U 23028AM  24176.85721439  .00000345  00000-0  36739-4 0  9998,2 55776  70.0000 354.6462 0003121 266.5926  93.4876 14.98332367 73241,6950.186,96.107,574.22,569.881,0.0
55776.0,STARLINK-5810,PAYLOAD,2024-06-25 12:35:44,14.98331455,0.0003125,69.9999,352.9628,264.9831,95.0971,-3.0138e-05,-4.53e-06,0.0,0 STARLINK-5810,1 55776U 23028AM  24177.52481615 -.00000453  00000-0 -30138-4 0  9991,2 55776  69.9999 352.9628 0003125 264.9831  95.0971 14.98331455 73343,6950.188,96.107,574.225,569.881,0.0
55776.0,STARLINK-5810,PAYLOAD,2024-06-25 14:11:52,14.98331672,0.0003123,69.9999,352.7944,265.1021,94.9781,-2.6102e-05,-4.04e-06,0.0,0 STARLINK-5810,1 55776U 23028AM  24177.59157580 -.00000404  00000-0 -26102-4 0  9991,2 55776  69.9999 352.7944 0003123 265.1021  94.9781 14.98331672 73353,6950.188,96.107,574.223,569.882,0.0
55776.0,STARLINK-5810,PAYLOAD,2024-06-25 22:12:32,14.98334389,0.0003091,70.0,351.9528,264.5134,95.5673,7.0982e-06,-8e-08,0.0,0 STARLINK-5810,1 55776U 23028AM  24177.92537243 -.00000008  00000-0  70982-5 0  9991,2 55776  70.0000 351.9528 0003091 264.5134  95.5673 14.98334389 73401,6950.179,96.107,574.193,569.896,0.0
55776.0,STARLINK-5810,PAYLOAD,2024-06-27 12:39:46,14.98317726,0.0002969,70.0007,347.9117,272.1208,87.9611,0.00011834,1.319e-05,0.0,0 STARLINK-5810,1 55776U 23028AM  24179.52761747  .00001319  00000-0  11834-3 0  9991,2 55776  70.0007 347.9117 0002969 272.1208  87.9611 14.98317726 73646,6950.231,96.108,574.159,570.032,0.0
55776.0,STARLINK-5810,PAYLOAD,2024-06-27 20:40:26,14.98328174,0.0002983,70.0004,347.0711,273.1974,86.8844,-2.444e-05,-3.85e-06,0.0,0 STARLINK-5810,1 55776U 23028AM  24179.86141640 -.00000385  00000-0 -24440-4 0  9994,2 55776  70.0004 347.0711 0002983 273.1974  86.8844 14.98328174 73691,6950.199,96.107,574.137,569.99,0.0
55776.0,STARLINK-5810,PAYLOAD,2024-06-28 04:41:06,14.98329797,0.0003019,70.0004,346.2291,273.4379,86.6434,-3.4885e-05,-5.09e-06,0.0,0 STARLINK-5810,1 55776U 23028AM  24180.19521569 -.00000509  00000-0 -34885-4 0  9996,2 55776  70.0004 346.2291 0003019 273.4379  86.6434 14.98329797 73749,6950.194,96.107,574.157,569.96,0.0
55776.0,STARLINK-5810,PAYLOAD,2024-06-28 14:17:54,14.98326951,0.0003104,70.0003,345.2189,273.0535,87.0269,7.5102e-05,8.03e-06,0.0,0 STARLINK-5810,1 55776U 23028AM  24180.59577220  .00000803  00000-0  75102-4 0  9997,2 55776  70.0003 345.2189 0003104 273.0535  87.0269 14.98326951 73805,6950.202,96.107,574.225,569.91,0.0
55776.0,STARLINK-5810,PAYLOAD,2024-06-28 20:42:26,14.98335834,0.0003036,70.0003,344.5456,273.1619,86.9193,0.00015173,1.718e-05,0.0,0 STARLINK-5810,1 55776U 23028AM  24180.86280446  .00001718  00000-0  15173-3 0  9995,2 55776  70.0003 344.5456 0003036 273.1619  86.9193 14.98335834 73840,6950.175,96.107,574.15,569.93,0.0
55776.0,STARLINK-5810,PAYLOAD,2024-06-29 14:19:54,14.98338557,0.0003036,70.0004,342.6941,272.9876,87.0936,0.00014776,1.671e-05,0.0,0 STARLINK-5810,1 55776U 23028AM  24181.59715920  .00001671  00000-0  14776-3 0  9992,2 55776  70.0004 342.6941 0003036 272.9876  87.0936 14.98338557 73955,6950.166,96.106,574.141,569.921,0.0
55776.0,STARLINK-5810,PAYLOAD,2024-06-29 20:44:26,14.98344992,0.0002956,70.0004,342.0199,270.28,89.802,0.0001792,2.047e-05,0.0,0 STARLINK-5810,1 55776U 23028AM  24181.86419199  .00002047  00000-0  17920-3 0  9993,2 55776  70.0004 342.0199 0002956 270.2800  89.8020 14.98344992 73990,6950.147,96.106,574.066,569.957,0.0
55776.0,STARLINK-5810,PAYLOAD,2024-06-30 11:09:40,14.98325219,0.0003101,70.0004,340.5049,268.3998,91.6806,-0.0001234,-1.565e-05,0.0,0 STARLINK-5810,1 55776U 23028AM  24182.46505156 -.00001565  00000-0 -12340-3 0  9996,2 55776  70.0004 340.5049 0003101 268.3998  91.6806 14.98325219 74081,6950.208,96.107,574.228,569.917,0.0
55776.0,STARLINK-5810,PAYLOAD,2024-06-30 14:21:56,14.98323659,0.0002965,70.0003,340.1692,272.6304,87.4516,-0.00012976,-1.641e-05,0.0,0 STARLINK-5810,1 55776U 23028AM  24182.59857346 -.00001641  00000-0 -12976-3 0  9991,2 55776  70.0003 340.1692 0002965 272.6304  87.4516 14.98323659 74106,6950.213,96.107,574.138,570.017,0.0
55776.0,STARLINK-5810,PAYLOAD,2024-06-30 20:46:29,14.98318964,0.0003018,70.0001,339.4954,267.8789,92.2025,-0.00022646,-2.793e-05,0.0,0 STARLINK-5810,1 55776U 23028AM  24182.86561993 -.00002793  00000-0 -22646-3 0  9995,2 55776  70.0001 339.4954 0003018 267.8789  92.2025 14.98318964 74145,6950.227,96.108,574.19,569.994,0.0
55776.0,STARLINK-5810,PAYLOAD,2024-07-01 03:11:01,14.98326583,0.0003183,69.9999,338.822,269.0821,90.9974,-0.00017979,-2.237e-05,0.0,0 STARLINK-5810,1 55776U 23028AM  24183.13265443 -.00002237  00000-0 -17979-3 0  9993,2 55776  69.9999 338.8220 0003183 269.0821  90.9974 14.98326583 74189,6950.203,96.107,574.281,569.856,0.0
55776.0,STARLINK-5810,PAYLOAD,2024-07-01 14:23:57,14.98329144,0.0003255,69.9998,337.6436,274.0072,86.0715,-0.00012425,-1.575e-05,0.0,0 STARLINK-5810,1 55776U 23028AM  24183.59997211 -.00001575  00000-0 -12425-3 0  9993,2 55776  69.9998 337.6436 0003255 274.0072  86.0715 14.98329144 74251,6950.196,96.107,574.323,569.798,0.0
55776.0,STARLINK-5810,PAYLOAD,2024-07-01 20:48:29,14.98338194,0.0003192,69.9999,336.9709,272.2003,87.8791,-4.3619e-05,-6.14e-06,0.0,0 STARLINK-5810,1 55776U 23028AM  24183.86700364 -.00000614  00000-0 -43619-4 0  9997,2 55776  69.9999 336.9709 0003192 272.2003  87.8791 14.98338194 74293,6950.168,96.106,574.251,569.814,0.0
55776.0,STARLINK-5810,PAYLOAD,2024-07-02 12:49:50,14.98316354,0.0003101,70.0003,335.2876,274.6083,85.4722,0.00013304,1.494e-05,0.0,0 STARLINK-5810,1 55776U 23028AM  24184.53461441  .00001494  00000-0  13304-3 0  9994,2 55776  70.0003 335.2876 0003101 274.6083  85.4722 14.98316354 74396,6950.235,96.108,574.255,569.945,0.0
55776.0,STARLINK-5810,PAYLOAD,2024-07-02 14:25:58,14.98316503,0.0003105,70.0003,335.1193,274.5513,85.5291,0.00013126,1.473e-05,0.0,0 STARLINK-5810,1 55776U 23028AM  24184.60137491  .00001473  00000-0  13126-3 0  9996,2 55776  70.0003 335.1193 0003105 274.5513  85.5291 14.98316503 74408,6950.235,96.108,574.258,569.942,0.0
